[{"OBJECT_NAME":"STARLINK-5821","OBJECT_ID":"2023-088X","EPOCH":"2026-03-09T22:00:01.999584","MEAN_MOTION":15.07650569,"ECCENTRICITY":0.00017859,"INCLINATION":43.0009,"RA_OF_ASC_NODE":93.4567,"ARG_OF_PERICENTER":244.9913,"MEAN_ANOMALY":28.8235,"EPHEMERIS_TYPE":0,"CLASSIFICATION_TYPE":"U","NORAD_CAT_ID":57069,"ELEMENT_SET_NO":999,"REV_AT_EPOCH":577,"BSTAR":0.0034034715,"MEAN_MOTION_DOT":0.00052934,"MEAN_MOTION_DDOT":0},{"OBJECT_NAME":"CZ-6A R\/B","OBJECT_ID":"2023-168B","EPOCH":"2026-03-09T21:13:08.722272","MEAN_MOTION":15.16100791,"ECCENTRICITY":0.00607667,"INCLINATION":97.7542,"RA_OF_ASC_NODE":104.7688,"ARG_OF_PERICENTER":339.2379,"MEAN_ANOMALY":20.6386,"EPHEMERIS_TYPE":0,"CLASSIFICATION_TYPE":"U","NORAD_CAT_ID":58200,"ELEMENT_SET_NO":999,"REV_AT_EPOCH":12979,"BSTAR":0.00029693841,"MEAN_MOTION_DOT":5.919e-5,"MEAN_MOTION_DDOT":0}]
